{"type": "FeatureCollection", "features": [{"type": "Feature", "geometry": {"type": "Polygon", "coordinates": [[[8.5442321, 47.3679029], [8.5442322, 47.3679056], [8.5442336, 47.3679083], [8.544235, 47.367911], [8.544235, 47.3679128], [8.5442364, 47.3679154], [8.5442377, 47.3679181], [8.5442391, 47.3679208], [8.5442405, 47.3679226], [8.5442419, 47.3679253], [8.5442446, 47.367928], [8.5442459, 47.3679297], [8.5442473, 47.3679324], [8.54425, 47.3679342], [8.5442514, 47.3679369], [8.5442541, 47.3679387], [8.5442554, 47.3679413], [8.5442581, 47.3679431], [8.5442595, 47.3679458], [8.5442622, 47.3679476], [8.5442649, 47.3679493], [8.5442676, 47.3679511], [8.5442703, 47.3679538], [8.544273, 47.3679556], [8.5442756, 47.3679573], [8.5442783, 47.3679591], [8.544281, 47.3679609], [8.5442837, 47.3679627], [8.5442877, 47.3679635], [8.5442904, 47.3679653], [8.544293, 47.3679671], [8.544297, 47.3679679], [8.5442997, 47.3679697], [8.5443037, 47.3679715], [8.5443064, 47.3679723], [8.5443104, 47.3679741], [8.5443131, 47.367975], [8.5443171, 47.3679758], [8.5443211, 47.3679767], [8.5443237, 47.3679785], [8.5443277, 47.3679793], [8.5443317, 47.3679802], [8.5443357, 47.3679811], [8.5443384, 47.3679819], [8.5443423, 47.3679819], [8.5443463, 47.3679827], [8.5443503, 47.3679836], [8.5443543, 47.3679836], [8.5443583, 47.3679844], [8.5443623, 47.3679844], [8.5443649, 47.3679853], [8.5443689, 47.3679852], [8.5443729, 47.3679852], [8.5443768, 47.3679852], [8.5443808, 47.3679851], [8.5443848, 47.3679851], [8.5443888, 47.367985], [8.5443927, 47.367985], [8.5443967, 47.367985], [8.5444006, 47.367984], [8.5444046, 47.367984], [8.5444086, 47.3679831], [8.5444125, 47.367983], [8.5444152, 47.3679821], [8.5444191, 47.3679812], [8.5444231, 47.3679811], [8.544427, 47.3679802], [8.544431, 47.3679792], [8.544435, 47.3679783], [8.5444376, 47.3679774], [8.5444415, 47.3679764], [8.5444455, 47.3679746], [8.5444481, 47.3679737], [8.544452, 47.3679727], [8.5444547, 47.3679709], [8.5444586, 47.36797], [8.5444625, 47.3679681], [8.5444652, 47.3679672], [8.5444678, 47.3679654], [8.5444717, 47.3679636], [8.5444743, 47.3679617], [8.5444769, 47.3679599], [8.5444809, 47.367959], [8.5444835, 47.3679571], [8.5444861, 47.3679544], [8.5444887, 47.3679526], [8.5444913, 47.3679508], [8.5444939, 47.367949], [8.5444965, 47.3679471], [8.5444991, 47.3679444], [8.5445004, 47.3679426], [8.544503, 47.3679408], [8.5445043, 47.3679408], [8.5446694, 47.3677908], [8.5446734, 47.3677925], [8.5447631, 47.3677107], [8.5447604, 47.3677089], [8.5449241, 47.367558], [8.5449174, 47.3675545], [8.54492, 47.3675536], [8.5449226, 47.3675536], [8.544924, 47.3675526], [8.5449266, 47.3675517], [8.5449279, 47.3675508], [8.5449305, 47.3675499], [8.5449318, 47.367549], [8.5449331, 47.3675481], [8.5449358, 47.3675471], [8.5449371, 47.3675462], [8.5449383, 47.3675444], [8.544941, 47.3675435], [8.5449423, 47.3675426], [8.5449436, 47.3675408], [8.5449449, 47.3675399], [8.5449462, 47.367538], [8.5449475, 47.3675371], [8.5449474, 47.3675353], [8.5449487, 47.3675344], [8.54495, 47.3675326], [8.54495, 47.3675308], [8.5449513, 47.3675299], [8.5449512, 47.3675281], [8.5449525, 47.3675263], [8.5449525, 47.3675245], [8.5449525, 47.3675236], [8.5449524, 47.3675218], [8.5449537, 47.36752], [8.5449537, 47.3675182], [8.5449537, 47.3675164], [8.5449523, 47.3675155], [8.5449523, 47.3675137], [8.5449522, 47.3675119], [8.5449522, 47.3675101], [8.5449509, 47.3675092], [8.5449508, 47.3675074], [8.5449495, 47.3675056], [8.5449481, 47.3675047], [8.5449481, 47.3675029], [8.5449467, 47.3675021], [8.5449454, 47.3675003], [8.544944, 47.3674985], [8.5449427, 47.3674976], [8.5449413, 47.3674967], [8.54494, 47.3674949], [8.5449386, 47.367494], [8.544936, 47.3674932], [8.5449346, 47.3674914], [8.5449333, 47.3674905], [8.5449319, 47.3674896], [8.5449292, 47.3674887], [8.5449279, 47.3674878], [8.5449252, 47.367487], [8.5449239, 47.3674861], [8.5449212, 47.3674852], [8.5449186, 47.3674852], [8.5449172, 47.3674843], [8.5449146, 47.3674835], [8.5449119, 47.3674835], [8.5449106, 47.3674826], [8.5449079, 47.3674826], [8.5449053, 47.3674827], [8.5449026, 47.3674827], [8.5449013, 47.3674818], [8.5448986, 47.3674818], [8.544896, 47.3674819], [8.5448934, 47.3674819], [8.544892, 47.3674828], [8.5448946, 47.3674774], [8.5445294, 47.3673594], [8.5442504, 47.3678272], [8.5442544, 47.367828], [8.5442518, 47.3678307], [8.5442492, 47.3678326], [8.5442479, 47.3678353], [8.5442467, 47.3678371], [8.5442441, 47.3678398], [8.5442428, 47.3678416], [8.5442415, 47.3678443], [8.5442402, 47.367847], [8.5442376, 47.3678489], [8.5442364, 47.3678516], [8.5442364, 47.3678543], [8.5442351, 47.3678561], [8.5442339, 47.3678588], [8.5442326, 47.3678615], [8.5442327, 47.3678642], [8.5442314, 47.3678669], [8.5442301, 47.3678696], [8.5442302, 47.3678714], [8.5442302, 47.3678741], [8.5442289, 47.3678768], [8.544229, 47.3678795], [8.5442291, 47.3678822], [8.5442291, 47.3678849], [8.5442292, 47.3678876], [8.5442292, 47.3678903], [8.5442293, 47.367893], [8.5442307, 47.3678957], [8.5442307, 47.3678975], [8.5442308, 47.3679002], [8.5442321, 47.3679029]]]}, "properties": {"kind": "parcel", "local_id": "AA2912", "egrid": "CH819189997789", "area_m2": 1949.7, "geometry_lv95": {"type": "Polygon", "coordinates": [[[2683509.2, 1246928.1], [2683509.2, 1246928.4], [2683509.3, 1246928.7], [2683509.4, 1246929.0], [2683509.4, 1246929.2], [2683509.5, 1246929.5], [2683509.6, 1246929.8], [2683509.7, 1246930.1], [2683509.8, 1246930.3], [2683509.9, 1246930.6], [2683510.1, 1246930.9], [2683510.2, 1246931.1], [2683510.3, 1246931.4], [2683510.5, 1246931.6], [2683510.6, 1246931.9], [2683510.8, 1246932.1], [2683510.9, 1246932.4], [2683511.1, 1246932.6], [2683511.2, 1246932.9], [2683511.4, 1246933.1], [2683511.6, 1246933.3], [2683511.8, 1246933.5], [2683512.0, 1246933.8], [2683512.2, 1246934.0], [2683512.4, 1246934.2], [2683512.6, 1246934.4], [2683512.8, 1246934.6], [2683513.0, 1246934.8], [2683513.3, 1246934.9], [2683513.5, 1246935.1], [2683513.7, 1246935.3], [2683514.0, 1246935.4], [2683514.2, 1246935.6], [2683514.5, 1246935.8], [2683514.7, 1246935.9], [2683515.0, 1246936.1], [2683515.2, 1246936.2], [2683515.5, 1246936.3], [2683515.8, 1246936.4], [2683516.0, 1246936.6], [2683516.3, 1246936.7], [2683516.6, 1246936.8], [2683516.9, 1246936.9], [2683517.1, 1246937.0], [2683517.4, 1246937.0], [2683517.7, 1246937.1], [2683518.0, 1246937.2], [2683518.3, 1246937.2], [2683518.6, 1246937.3], [2683518.9, 1246937.3], [2683519.1, 1246937.4], [2683519.4, 1246937.4], [2683519.7, 1246937.4], [2683520.0, 1246937.4], [2683520.3, 1246937.4], [2683520.6, 1246937.4], [2683520.9, 1246937.4], [2683521.2, 1246937.4], [2683521.5, 1246937.4], [2683521.8, 1246937.3], [2683522.1, 1246937.3], [2683522.4, 1246937.2], [2683522.7, 1246937.2], [2683522.9, 1246937.1], [2683523.2, 1246937.0], [2683523.5, 1246937.0], [2683523.8, 1246936.9], [2683524.1, 1246936.8], [2683524.4, 1246936.7], [2683524.6, 1246936.6], [2683524.9, 1246936.5], [2683525.2, 1246936.3], [2683525.4, 1246936.2], [2683525.7, 1246936.1], [2683525.9, 1246935.9], [2683526.2, 1246935.8], [2683526.5, 1246935.6], [2683526.7, 1246935.5], [2683526.9, 1246935.3], [2683527.2, 1246935.1], [2683527.4, 1246934.9], [2683527.6, 1246934.7], [2683527.9, 1246934.6], [2683528.1, 1246934.4], [2683528.3, 1246934.1], [2683528.5, 1246933.9], [2683528.7, 1246933.7], [2683528.9, 1246933.5], [2683529.1, 1246933.3], [2683529.3, 1246933.0], [2683529.4, 1246932.8], [2683529.6, 1246932.6], [2683529.7, 1246932.6], [2683542.4, 1246916.1], [2683542.7, 1246916.3], [2683549.6, 1246907.3], [2683549.4, 1246907.1], [2683562.0, 1246890.5], [2683561.5, 1246890.1], [2683561.7, 1246890.0], [2683561.9, 1246890.0], [2683562.0, 1246889.9], [2683562.2, 1246889.8], [2683562.3, 1246889.7], [2683562.5, 1246889.6], [2683562.6, 1246889.5], [2683562.7, 1246889.4], [2683562.9, 1246889.3], [2683563.0, 1246889.2], [2683563.1, 1246889.0], [2683563.3, 1246888.9], [2683563.4, 1246888.8], [2683563.5, 1246888.6], [2683563.6, 1246888.5], [2683563.7, 1246888.3], [2683563.8, 1246888.2], [2683563.8, 1246888.0], [2683563.9, 1246887.9], [2683564.0, 1246887.7], [2683564.0, 1246887.5], [2683564.1, 1246887.4], [2683564.1, 1246887.2], [2683564.2, 1246887.0], [2683564.2, 1246886.8], [2683564.2, 1246886.7], [2683564.2, 1246886.5], [2683564.3, 1246886.3], [2683564.3, 1246886.1], [2683564.3, 1246885.9], [2683564.2, 1246885.8], [2683564.2, 1246885.6], [2683564.2, 1246885.4], [2683564.2, 1246885.2], [2683564.1, 1246885.1], [2683564.1, 1246884.9], [2683564.0, 1246884.7], [2683563.9, 1246884.6], [2683563.9, 1246884.4], [2683563.8, 1246884.3], [2683563.7, 1246884.1], [2683563.6, 1246883.9], [2683563.5, 1246883.8], [2683563.4, 1246883.7], [2683563.3, 1246883.5], [2683563.2, 1246883.4], [2683563.0, 1246883.3], [2683562.9, 1246883.1], [2683562.8, 1246883.0], [2683562.7, 1246882.9], [2683562.5, 1246882.8], [2683562.4, 1246882.7], [2683562.2, 1246882.6], [2683562.1, 1246882.5], [2683561.9, 1246882.4], [2683561.7, 1246882.4], [2683561.6, 1246882.3], [2683561.4, 1246882.2], [2683561.2, 1246882.2], [2683561.1, 1246882.1], [2683560.9, 1246882.1], [2683560.7, 1246882.1], [2683560.5, 1246882.1], [2683560.4, 1246882.0], [2683560.2, 1246882.0], [2683560.0, 1246882.0], [2683559.8, 1246882.0], [2683559.7, 1246882.1], [2683559.9, 1246881.5], [2683532.5, 1246868.0], [2683510.7, 1246919.7], [2683511.0, 1246919.8], [2683510.8, 1246920.1], [2683510.6, 1246920.3], [2683510.5, 1246920.6], [2683510.4, 1246920.8], [2683510.2, 1246921.1], [2683510.1, 1246921.3], [2683510.0, 1246921.6], [2683509.9, 1246921.9], [2683509.7, 1246922.1], [2683509.6, 1246922.4], [2683509.6, 1246922.7], [2683509.5, 1246922.9], [2683509.4, 1246923.2], [2683509.3, 1246923.5], [2683509.3, 1246923.8], [2683509.2, 1246924.1], [2683509.1, 1246924.4], [2683509.1, 1246924.6], [2683509.1, 1246924.9], [2683509.0, 1246925.2], [2683509.0, 1246925.5], [2683509.0, 1246925.8], [2683509.0, 1246926.1], [2683509.0, 1246926.4], [2683509.0, 1246926.7], [2683509.0, 1246927.0], [2683509.1, 1246927.3], [2683509.1, 1246927.5], [2683509.1, 1246927.8], [2683509.2, 1246928.1]]]}}}, {"type": "Feature", "geometry": {"type": "Point", "coordinates": [8.5445586, 47.3676699]}, "properties": {"kind": "building", "egid": "9011202", "floors": 7, "footprint_m2": 1943.0, "geometry_lv95": {"type": "Point", "coordinates": [2683534.22, 1246902.55]}}}, {"type": "Feature", "geometry": {"type": "Point", "coordinates": [8.547707750119645, 47.368185554024826]}, "properties": {"kind": "event", "id": "BP-ZH01-0000062905", "type": "energy", "date": "2026-09-04", "distance_m": 231.3, "east": 2683771.2600000016, "north": 1246963.2289999984}}, {"type": "Feature", "geometry": {"type": "Point", "coordinates": [8.543693366404108, 47.369320210674054]}, "properties": {"kind": "event", "id": "BP-ZH01-0000062902", "type": "demolition", "date": "2026-09-04", "distance_m": 190.8, "east": 2683466.289000001, "north": 1247085.0920000002}}, {"type": "Feature", "geometry": {"type": "Point", "coordinates": [8.548571409483024, 47.370402689270016]}, "properties": {"kind": "event", "id": "BP-ZH01-0000062901", "type": "demolition", "date": "2026-09-04", "distance_m": 414.6, "east": 2683833.0029999986, "north": 1247210.6319999993}}, {"type": "Feature", "geometry": {"type": "Point", "coordinates": [8.541384103702594, 47.36877414768553]}, "properties": {"kind": "event", "id": "BP-ZH01-0000062893", "type": "extension", "date": "2026-09-04", "distance_m": 276.0, "east": 2683292.734000001, "north": 1247021.932}}, {"type": "Feature", "geometry": {"type": "Point", "coordinates": [8.548053585497959, 47.36567696832125]}, "properties": {"kind": "event", "id": "BP-ZH01-0000062766", "type": "extension", "date": "2026-08-28", "distance_m": 341.8, "east": 2683801.322999999, "north": 1246684.7170000002}}, {"type": "Feature", "geometry": {"type": "Point", "coordinates": [8.54744958175271, 47.36524364228429]}, "properties": {"kind": "event", "id": "BP-ZH01-0000062764", "type": "other", "date": "2026-08-28", "distance_m": 347.0, "east": 2683756.3830000013, "north": 1246635.8990000002}}, {"type": "Feature", "geometry": {"type": "Point", "coordinates": [8.541543324393727, 47.37074351124544]}, "properties": {"kind": "event", "id": "BP-ZH01-0000062747", "type": "other", "date": "2026-08-28", "distance_m": 410.0, "east": 2683301.682, "north": 1247241.0370000005}}, {"type": "Feature", "geometry": {"type": "Point", "coordinates": [8.548169860275424, 47.36653657286957]}, "properties": {"kind": "event", "id": "BP-ZH01-0000062622", "type": "conversion", "date": "2026-08-28", "distance_m": 293.9, "east": 2683808.7540000007, "north": 1246780.4039999992}}, {"type": "Feature", "geometry": {"type": "Point", "coordinates": [8.544554820514838, 47.37087088067895]}, "properties": {"kind": "event", "id": "BP-ZH01-0000062327", "type": "other", "date": "2026-08-14", "distance_m": 347.2, "east": 2683528.921, "north": 1247258.3979999982}}, {"type": "Feature", "geometry": {"type": "Point", "coordinates": [8.548053585497959, 47.36567696832125]}, "properties": {"kind": "event", "id": "BP-ZH01-0000062037", "type": "extension", "date": "2026-07-31", "distance_m": 341.8, "east": 2683801.322999999, "north": 1246684.7170000002}}, {"type": "Feature", "geometry": {"type": "Point", "coordinates": [8.54744958175271, 47.36524364228429]}, "properties": {"kind": "event", "id": "BP-ZH01-0000062031", "type": "other", "date": "2026-07-31", "distance_m": 347.0, "east": 2683756.3830000013, "north": 1246635.8990000002}}, {"type": "Feature", "geometry": {"type": "Point", "coordinates": [8.541543324393727, 47.37074351124544]}, "properties": {"kind": "event", "id": "BP-ZH01-0000062007", "type": "other", "date": "2026-07-31", "distance_m": 410.0, "east": 2683301.682, "north": 1247241.0370000005}}, {"type": "Feature", "geometry": {"type": "Point", "coordinates": [8.545763537132583, 47.368245720038885]}, "properties": {"kind": "event", "id": "BP-ZH01-0000061739", "type": "conversion", "date": "2026-07-17", "distance_m": 96.6, "east": 2683624.3249999993, "north": 1246967.8440000005}}, {"type": "Feature", "geometry": {"type": "Point", "coordinates": [8.53989941962766, 47.36899484238443]}, "properties": {"kind": "event", "id": "BP-ZH01-0000061586", "type": "antenna", "date": "2026-07-10", "distance_m": 389.0, "east": 2683180.2569999993, "north": 1247044.892000001}}, {"type": "Feature", "geometry": {"type": "Point", "coordinates": [8.545681603266702, 47.368211154405245]}, "properties": {"kind": "event", "id": "BP-ZH01-0000061582", "type": "conversion", "date": "2026-07-10", "distance_m": 89.3, "east": 2683618.1909999996, "north": 1246963.9140000008}}, {"type": "Feature", "geometry": {"type": "Point", "coordinates": [8.54852848985471, 47.36422056507869]}, "properties": {"kind": "event", "id": "BP-ZH01-0000061562", "type": "other", "date": "2026-07-10", "distance_m": 486.9, "east": 2683839.482999999, "north": 1246523.3150000013}}, {"type": "Feature", "geometry": {"type": "Point", "coordinates": [8.548153921354954, 47.36779431438389]}, "properties": {"kind": "event", "id": "BP-ZH01-0000061284", "type": "other", "date": "2026-06-26", "distance_m": 260.0, "east": 2683805.572999999, "north": 1246920.2109999992}}, {"type": "Feature", "geometry": {"type": "Point", "coordinates": [8.539673737535434, 47.36755578979275]}, "properties": {"kind": "event", "id": "BP-ZH01-0000061280", "type": "other", "date": "2026-06-26", "distance_m": 381.2, "east": 2683165.4569999985, "north": 1246884.6719999984}}, {"type": "Feature", "geometry": {"type": "Point", "coordinates": [8.541137903768618, 47.36934868010497]}, "properties": {"kind": "event", "id": "BP-ZH01-0000060966", "type": "new_building", "date": "2026-06-12", "distance_m": 323.3, "east": 2683273.2419999987, "north": 1247085.5419999994}}, {"type": "Feature", "geometry": {"type": "Point", "coordinates": [8.546278780465574, 47.368560351192464]}, "properties": {"kind": "event", "id": "BP-ZH01-0000060962", "type": "other", "date": "2026-06-12", "distance_m": 148.7, "east": 2683662.7459999993, "north": 1247003.3709999993}}, {"type": "Feature", "geometry": {"type": "Point", "coordinates": [8.548182071611807, 47.36832428237357]}, "properties": {"kind": "event", "id": "BP-ZH01-0000060960", "type": "new_building", "date": "2026-06-12", "distance_m": 269.7, "east": 2683806.8660000004, "north": 1246979.1579999998}}, {"type": "Feature", "geometry": {"type": "Point", "coordinates": [8.548321751580882, 47.365082734010485]}, "properties": {"kind": "event", "id": "BP-ZH01-0000060781", "type": "other", "date": "2026-06-05", "distance_m": 402.8, "east": 2683822.5119999982, "north": 1246618.9420000017}}, {"type": "Feature", "geometry": {"type": "Point", "coordinates": [8.54135367114223, 47.37133411779628]}, "properties": {"kind": "event", "id": "BP-ZH01-0000060211", "type": "conversion", "date": "2026-05-08", "distance_m": 472.4, "east": 2683286.4360000007, "north": 1247306.493999999}}, {"type": "Feature", "geometry": {"type": "Point", "coordinates": [8.546493608792591, 47.369068262763705]}, "properties": {"kind": "event", "id": "BP-ZH01-0000060209", "type": "conversion", "date": "2026-05-08", "distance_m": 198.9, "east": 2683678.1739999987, "north": 1247060.0650000013}}, {"type": "Feature", "geometry": {"type": "Point", "coordinates": [8.54139053875151, 47.371105198981134]}, "properties": {"kind": "event", "id": "BP-ZH01-0000060202", "type": "extension", "date": "2026-05-08", "distance_m": 449.6, "east": 2683289.5780000016, "north": 1247281.0839999989}}, {"type": "Feature", "geometry": {"type": "Point", "coordinates": [8.539981076772303, 47.36857650856873]}, "properties": {"kind": "event", "id": "BP-ZH01-0000060201", "type": "conversion", "date": "2026-05-08", "distance_m": 369.0, "east": 2683187.0769999996, "north": 1246998.4719999991}}, {"type": "Feature", "geometry": {"type": "Point", "coordinates": [8.546080667892152, 47.36764976305764]}, "properties": {"kind": "event", "id": "BP-ZH01-0000060190", "type": "conversion", "date": "2026-05-08", "distance_m": 103.9, "east": 2683649.212000001, "north": 1246901.9290000014}}, {"type": "Feature", "geometry": {"type": "Point", "coordinates": [8.549494466353792, 47.37003913570631]}, "properties": {"kind": "event", "id": "BP-ZH01-0000060189", "type": "other", "date": "2026-05-08", "distance_m": 441.8, "east": 2683903.287999999, "north": 1247171.2019999996}}, {"type": "Feature", "geometry": {"type": "Point", "coordinates": [8.545624536428566, 47.36876198072765]}, "properties": {"kind": "event", "id": "BP-ZH01-0000060187", "type": "conversion", "date": "2026-05-08", "distance_m": 131.9, "east": 2683613.017000001, "north": 1247025.0890000015}}, {"type": "Feature", "geometry": {"type": "Point", "coordinates": [8.549079635292273, 47.3697710028983]}, "properties": {"kind": "event", "id": "BP-ZH01-0000059745", "type": "conversion", "date": "2026-04-17", "distance_m": 399.1, "east": 2683872.379999999, "north": 1247140.9499999993}}, {"type": "Feature", "geometry": {"type": "Point", "coordinates": [8.544044215099518, 47.369465156560004]}, "properties": {"kind": "event", "id": "BP-ZH01-0000059744", "type": "other", "date": "2026-04-17", "distance_m": 197.3, "east": 2683492.5599999987, "north": 1247101.579}}, {"type": "Feature", "geometry": {"type": "Point", "coordinates": [8.548181364853859, 47.36527700247199]}, "properties": {"kind": "event", "id": "BP-ZH01-0000059572", "type": "conversion", "date": "2026-04-10", "distance_m": 379.8, "east": 2683811.603, "north": 1246640.3889999986}}, {"type": "Feature", "geometry": {"type": "Point", "coordinates": [8.548181364853859, 47.36527700247199]}, "properties": {"kind": "event", "id": "BP-ZH01-0000059569", "type": "conversion", "date": "2026-04-10", "distance_m": 379.8, "east": 2683811.603, "north": 1246640.3889999986}}, {"type": "Feature", "geometry": {"type": "Point", "coordinates": [8.540071516007865, 47.367020337995676]}, "properties": {"kind": "event", "id": "BP-ZH01-0000059560", "type": "demolition", "date": "2026-04-10", "distance_m": 359.9, "east": 2683196.335999999, "north": 1246825.5670000017}}, {"type": "Feature", "geometry": {"type": "Point", "coordinates": [8.548169860275424, 47.36653657286957]}, "properties": {"kind": "event", "id": "BP-ZH01-0000059218", "type": "other", "date": "2026-03-20", "distance_m": 293.9, "east": 2683808.7540000007, "north": 1246780.4039999992}}, {"type": "Feature", "geometry": {"type": "Point", "coordinates": [8.545507019626351, 47.36814561578838]}, "properties": {"kind": "event", "id": "BP-ZH01-0000059074", "type": "other", "date": "2026-03-13", "distance_m": 74.4, "east": 2683605.107999999, "north": 1246956.4420000017}}, {"type": "Feature", "geometry": {"type": "Point", "coordinates": [8.546715007543824, 47.36414279236257]}, "properties": {"kind": "event", "id": "BP-ZH01-0000059070", "type": "conversion", "date": "2026-03-13", "distance_m": 428.6, "east": 2683702.6279999986, "north": 1246512.732999999}}, {"type": "Feature", "geometry": {"type": "Point", "coordinates": [8.545547551078547, 47.37136392170214]}, "properties": {"kind": "event", "id": "BP-ZH01-0000058724", "type": "extension", "date": "2026-02-20", "distance_m": 406.7, "east": 2683603.1220000014, "north": 1247314.267000001}}, {"type": "Feature", "geometry": {"type": "Point", "coordinates": [8.541501924551914, 47.37025542466987]}, "properties": {"kind": "event", "id": "BP-ZH01-0000058722", "type": "extension", "date": "2026-02-20", "distance_m": 369.3, "east": 2683299.318, "north": 1247186.7320000008}}, {"type": "Feature", "geometry": {"type": "Point", "coordinates": [8.545680922744769, 47.37187369440942]}, "properties": {"kind": "event", "id": "BP-ZH01-0000058572", "type": "conversion", "date": "2026-02-13", "distance_m": 464.3, "east": 2683612.3949999996, "north": 1247371.0810000002}}, {"type": "Feature", "geometry": {"type": "Point", "coordinates": [8.544789557663947, 47.36689254522086]}, "properties": {"kind": "event", "id": "BP-ZH01-0000058570", "type": "conversion", "date": "2026-02-13", "distance_m": 95.5, "east": 2683552.8839999996, "north": 1246816.3729999997}}, {"type": "Feature", "geometry": {"type": "Point", "coordinates": [8.548899959325276, 47.36722371427855]}, "properties": {"kind": "event", "id": "BP-ZH01-0000058565", "type": "extension", "date": "2026-02-13", "distance_m": 321.6, "east": 2683862.8170000017, "north": 1246857.574000001}}, {"type": "Feature", "geometry": {"type": "Point", "coordinates": [8.541770406656884, 47.370088357326836]}, "properties": {"kind": "event", "id": "BP-ZH01-0000058564", "type": "other", "date": "2026-02-13", "distance_m": 342.0, "east": 2683319.8559999987, "north": 1247168.4439999983}}, {"type": "Feature", "geometry": {"type": "Point", "coordinates": [8.541591660950965, 47.37088400374482]}, "properties": {"kind": "event", "id": "BP-ZH01-0000058285", "type": "extension", "date": "2026-01-30", "distance_m": 420.7, "east": 2683305.1130000018, "north": 1247256.7069999985}}, {"type": "Feature", "geometry": {"type": "Point", "coordinates": [8.544332239340662, 47.36907838710562]}, "properties": {"kind": "event", "id": "BP-ZH01-0000057938", "type": "other", "date": "2026-01-16", "distance_m": 150.5, "east": 2683514.9189999998, "north": 1247058.8880000003}}, {"type": "Feature", "geometry": {"type": "Point", "coordinates": [8.545254421072938, 47.36774887574873]}, "properties": {"kind": "event", "id": "BP-ZH01-0000057920", "type": "other", "date": "2026-01-16", "distance_m": 40.9, "east": 2683586.651999999, "north": 1246912.0670000017}}, {"type": "Feature", "geometry": {"type": "Point", "coordinates": [8.542383890558838, 47.36768331609361]}, "properties": {"kind": "event", "id": "BP-ZH01-0000057604", "type": "conversion", "date": "2025-12-19", "distance_m": 176.1, "east": 2683369.9499999993, "north": 1246901.7250000015}}, {"type": "Feature", "geometry": {"type": "Point", "coordinates": [8.545443308499687, 47.36782235532723]}, "properties": {"kind": "event", "id": "BP-ZH01-0000057603", "type": "conversion", "date": "2025-12-19", "distance_m": 55.8, "east": 2683600.8029999994, "north": 1246920.436999999}}, {"type": "Feature", "geometry": {"type": "Point", "coordinates": [8.549389708410546, 47.369521400770964]}, "properties": {"kind": "event", "id": "BP-ZH01-0000057601", "type": "extension", "date": "2025-12-19", "distance_m": 404.4, "east": 2683896.1909999996, "north": 1247113.5329999998}}, {"type": "Feature", "geometry": {"type": "Point", "coordinates": [8.547399880075742, 47.36713997876344]}, "properties": {"kind": "event", "id": "BP-ZH01-0000057592", "type": "signage", "date": "2025-12-19", "distance_m": 214.0, "east": 2683749.6499999985, "north": 1246846.6629999988}}, {"type": "Feature", "geometry": {"type": "Point", "coordinates": [8.54073379775538, 47.3685460399492]}, "properties": {"kind": "event", "id": "BP-ZH01-0000057587", "type": "extension", "date": "2025-12-19", "distance_m": 313.3, "east": 2683243.9750000015, "north": 1246995.8830000013}}, {"type": "Feature", "geometry": {"type": "Point", "coordinates": [8.541591660950965, 47.37088400374482]}, "properties": {"kind": "event", "id": "BP-ZH01-0000057363", "type": "demolition", "date": "2025-12-05", "distance_m": 420.7, "east": 2683305.1130000018, "north": 1247256.7069999985}}, {"type": "Feature", "geometry": {"type": "Point", "coordinates": [8.548699476225286, 47.36751354995743]}, "properties": {"kind": "event", "id": "BP-ZH01-0000057357", "type": "conversion", "date": "2025-12-05", "distance_m": 302.3, "east": 2683847.2190000005, "north": 1246889.5810000002}}, {"type": "Feature", "geometry": {"type": "Point", "coordinates": [8.544115352525871, 47.369807803024635]}, "properties": {"kind": "event", "id": "BP-ZH01-0000057237", "type": "other", "date": "2025-11-28", "distance_m": 233.2, "east": 2683497.3960000016, "north": 1247139.7470000014}}, {"type": "Feature", "geometry": {"type": "Point", "coordinates": [8.540960684080114, 47.370802405562365]}, "properties": {"kind": "event", "id": "BP-ZH01-0000057227", "type": "conversion", "date": "2025-11-28", "distance_m": 442.1, "east": 2683257.587000001, "north": 1247246.9659999982}}, {"type": "Feature", "geometry": {"type": "Point", "coordinates": [8.546715007543824, 47.36414279236257]}, "properties": {"kind": "event", "id": "BP-ZH01-0000056709", "type": "conversion", "date": "2025-10-31", "distance_m": 428.6, "east": 2683702.6279999986, "north": 1246512.732999999}}, {"type": "Feature", "geometry": {"type": "Point", "coordinates": [8.548571409483024, 47.370402689270016]}, "properties": {"kind": "event", "id": "BP-ZH01-0000056586", "type": "conversion", "date": "2025-10-24", "distance_m": 414.6, "east": 2683833.0029999986, "north": 1247210.6319999993}}, {"type": "Feature", "geometry": {"type": "Point", "coordinates": [8.548181364853859, 47.36527700247199]}, "properties": {"kind": "event", "id": "BP-ZH01-0000056434", "type": "extension", "date": "2025-10-17", "distance_m": 379.8, "east": 2683811.603, "north": 1246640.3889999986}}, {"type": "Feature", "geometry": {"type": "Point", "coordinates": [8.540952933236843, 47.37036932689824]}, "properties": {"kind": "event", "id": "BP-ZH01-0000056304", "type": "extension", "date": "2025-10-10", "distance_m": 406.8, "east": 2683257.6779999994, "north": 1247198.811999999}}, {"type": "Feature", "geometry": {"type": "Point", "coordinates": [8.546219532048958, 47.36732483018117]}, "properties": {"kind": "event", "id": "BP-ZH01-0000055896", "type": "antenna", "date": "2025-09-19", "distance_m": 123.2, "east": 2683660.210000001, "north": 1246865.954}}, {"type": "Feature", "geometry": {"type": "Point", "coordinates": [8.54792712567264, 47.366685723827274]}, "properties": {"kind": "event", "id": "BP-ZH01-0000055893", "type": "conversion", "date": "2025-09-19", "distance_m": 270.1, "east": 2683790.1860000007, "north": 1246796.7259999998}}]}