{"type": "FeatureCollection", "features": [{"type": "Feature", "geometry": {"type": "Polygon", "coordinates": [[[8.5194116, 47.3748041], [8.5194117, 47.3748059], [8.5194117, 47.3748068], [8.5194117, 47.3748077], [8.5194118, 47.3748095], [8.5194118, 47.3748104], [8.5194118, 47.3748113], [8.5194132, 47.3748131], [8.5194132, 47.374814], [8.5194311, 47.3748516], [8.5194353, 47.3748605], [8.5206912, 47.3745645], [8.5206857, 47.3745547], [8.5209335, 47.3744966], [8.5209321, 47.3744921], [8.5212631, 47.3744243], [8.5212749, 47.3744169], [8.5212402, 47.3743399], [8.5211226, 47.3742888], [8.5211135, 47.3742961], [8.5210026, 47.3742486], [8.5202439, 47.373922], [8.5202426, 47.373922], [8.5202412, 47.373922], [8.5202399, 47.373922], [8.5202386, 47.373922], [8.5202359, 47.3739221], [8.5202346, 47.3739221], [8.5202333, 47.3739221], [8.520232, 47.373923], [8.5202307, 47.373923], [8.5202293, 47.373923], [8.520228, 47.3739239], [8.5202267, 47.3739239], [8.5202254, 47.3739249], [8.5202254, 47.3739249], [8.5202241, 47.3739258], [8.5202228, 47.3739267], [8.5202215, 47.3739267], [8.5202202, 47.3739276], [8.5200795, 47.3740414], [8.5199467, 47.3741568], [8.519822, 47.3742767], [8.5197081, 47.3744019], [8.5195994, 47.3745289], [8.5195027, 47.3746602], [8.5194141, 47.3747942], [8.5194141, 47.374796], [8.5194128, 47.3747969], [8.5194128, 47.3747978], [8.5194116, 47.3747996], [8.5194116, 47.3748005], [8.5194116, 47.3748014], [8.5194116, 47.3748032], [8.5194116, 47.3748041]]]}, "properties": {"kind": "parcel", "local_id": "AU6979", "egrid": "CH527182999120", "area_m2": 6724.2, "geometry_lv95": {"type": "Polygon", "coordinates": [[[2681624.0, 1247669.2], [2681624.0, 1247669.4], [2681624.0, 1247669.5], [2681624.0, 1247669.6], [2681624.0, 1247669.8], [2681624.0, 1247669.9], [2681624.0, 1247670.0], [2681624.1, 1247670.2], [2681624.1, 1247670.3], [2681625.4, 1247674.5], [2681625.7, 1247675.5], [2681721.0, 1247643.9], [2681720.6, 1247642.8], [2681739.4, 1247636.6], [2681739.3, 1247636.1], [2681764.4, 1247628.9], [2681765.3, 1247628.1], [2681762.8, 1247619.5], [2681754.0, 1247613.7], [2681753.3, 1247614.5], [2681745.0, 1247609.1], [2681688.2, 1247572.0], [2681688.1, 1247572.0], [2681688.0, 1247572.0], [2681687.9, 1247572.0], [2681687.8, 1247572.0], [2681687.6, 1247572.0], [2681687.5, 1247572.0], [2681687.4, 1247572.0], [2681687.3, 1247572.1], [2681687.2, 1247572.1], [2681687.1, 1247572.1], [2681687.0, 1247572.2], [2681686.9, 1247572.2], [2681686.8, 1247572.3], [2681686.8, 1247572.3], [2681686.7, 1247572.4], [2681686.6, 1247572.5], [2681686.5, 1247572.5], [2681686.4, 1247572.6], [2681675.6, 1247585.1], [2681665.4, 1247597.8], [2681655.8, 1247611.0], [2681647.0, 1247624.8], [2681638.6, 1247638.8], [2681631.1, 1247653.3], [2681624.2, 1247668.1], [2681624.2, 1247668.3], [2681624.1, 1247668.4], [2681624.1, 1247668.5], [2681624.0, 1247668.7], [2681624.0, 1247668.8], [2681624.0, 1247668.9], [2681624.0, 1247669.1], [2681624.0, 1247669.2]]]}}}, {"type": "Feature", "geometry": {"type": "Point", "coordinates": [8.521163, 47.3743986]}, "properties": {"kind": "building", "egid": "148299", "floors": 5, "footprint_m2": 123.0, "geometry_lv95": {"type": "Point", "coordinates": [2681756.88, 1247625.94]}}}, {"type": "Feature", "geometry": {"type": "Point", "coordinates": [8.5209276, 47.3743913]}, "properties": {"kind": "building", "egid": "302060303", "floors": 1, "footprint_m2": 164.0, "geometry_lv95": {"type": "Point", "coordinates": [2681739.111, 1247624.891]}}}, {"type": "Feature", "geometry": {"type": "Point", "coordinates": [8.5202325, 47.3743747]}, "properties": {"kind": "building", "egid": "302060629", "floors": 9, "footprint_m2": 5565.0, "geometry_lv95": {"type": "Point", "coordinates": [2681686.65, 1247622.32]}}}, {"type": "Feature", "geometry": {"type": "Point", "coordinates": [8.51936345982918, 47.374278997102316]}, "properties": {"kind": "event", "id": "BP-ZH01-0000062899", "type": "extension", "date": "2026-09-04", "distance_m": 100.1, "east": 2681621.164999999, "north": 1247610.7740000002}}, {"type": "Feature", "geometry": {"type": "Point", "coordinates": [8.52197583172679, 47.374503133178166]}, "properties": {"kind": "event", "id": "BP-ZH01-0000062770", "type": "conversion", "date": "2026-08-28", "distance_m": 100.1, "east": 2681818.1039999984, "north": 1247638.4120000005}}, {"type": "Feature", "geometry": {"type": "Point", "coordinates": [8.519049317816616, 47.37601764953129]}, "properties": {"kind": "event", "id": "BP-ZH01-0000062756", "type": "conversion", "date": "2026-08-28", "distance_m": 207.9, "east": 2681594.780000001, "north": 1247803.7360000014}}, {"type": "Feature", "geometry": {"type": "Point", "coordinates": [8.514347845491676, 47.37395938958448]}, "properties": {"kind": "event", "id": "BP-ZH01-0000062463", "type": "conversion", "date": "2026-08-21", "distance_m": 479.7, "east": 2681242.8790000007, "north": 1247570.0379999988}}, {"type": "Feature", "geometry": {"type": "Point", "coordinates": [8.514709133909841, 47.37611819468749]}, "properties": {"kind": "event", "id": "BP-ZH01-0000062175", "type": "other", "date": "2026-08-07", "distance_m": 483.6, "east": 2681266.8720000014, "north": 1247810.4100000001}}, {"type": "Feature", "geometry": {"type": "Point", "coordinates": [8.52197583172679, 47.374503133178166]}, "properties": {"kind": "event", "id": "BP-ZH01-0000062029", "type": "conversion", "date": "2026-07-31", "distance_m": 100.1, "east": 2681818.1039999984, "north": 1247638.4120000005}}, {"type": "Feature", "geometry": {"type": "Point", "coordinates": [8.519049317816616, 47.37601764953129]}, "properties": {"kind": "event", "id": "BP-ZH01-0000062014", "type": "conversion", "date": "2026-07-31", "distance_m": 207.9, "east": 2681594.780000001, "north": 1247803.7360000014}}, {"type": "Feature", "geometry": {"type": "Point", "coordinates": [8.52017654732599, 47.376635786994456]}, "properties": {"kind": "event", "id": "BP-ZH01-0000061985", "type": "extension", "date": "2026-07-24", "distance_m": 240.6, "east": 2681678.9569999985, "north": 1247873.6279999986}}, {"type": "Feature", "geometry": {"type": "Point", "coordinates": [8.51604317709928, 47.37326705831]}, "properties": {"kind": "event", "id": "BP-ZH01-0000061565", "type": "conversion", "date": "2026-07-10", "distance_m": 373.8, "east": 2681371.965999998, "north": 1247494.8269999996}}, {"type": "Feature", "geometry": {"type": "Point", "coordinates": [8.517244948289283, 47.37442795012803]}, "properties": {"kind": "event", "id": "BP-ZH01-0000061564", "type": "conversion", "date": "2026-07-10", "distance_m": 257.3, "east": 2681460.9499999993, "north": 1247625.1319999993}}, {"type": "Feature", "geometry": {"type": "Point", "coordinates": [8.520775267691056, 47.371550622025545]}, "properties": {"kind": "event", "id": "BP-ZH01-0000061083", "type": "conversion", "date": "2026-06-19", "distance_m": 327.6, "east": 2681731.965999998, "north": 1247308.925999999}}, {"type": "Feature", "geometry": {"type": "Point", "coordinates": [8.52197583172679, 47.374503133178166]}, "properties": {"kind": "event", "id": "BP-ZH01-0000060956", "type": "conversion", "date": "2026-06-12", "distance_m": 100.1, "east": 2681818.1039999984, "north": 1247638.4120000005}}, {"type": "Feature", "geometry": {"type": "Point", "coordinates": [8.517642496735826, 47.37296940445611]}, "properties": {"kind": "event", "id": "BP-ZH01-0000060647", "type": "conversion", "date": "2026-05-29", "distance_m": 283.6, "east": 2681493.2019999996, "north": 1247463.3960000016}}, {"type": "Feature", "geometry": {"type": "Point", "coordinates": [8.523751284955921, 47.37780507965548]}, "properties": {"kind": "event", "id": "BP-ZH01-0000060357", "type": "other", "date": "2026-05-15", "distance_m": 436.1, "east": 2681947.107000001, "north": 1248007.3469999991}}, {"type": "Feature", "geometry": {"type": "Point", "coordinates": [8.526332373147586, 47.376659403004005]}, "properties": {"kind": "event", "id": "BP-ZH01-0000060217", "type": "conversion", "date": "2026-05-08", "distance_m": 492.0, "east": 2682143.780000001, "north": 1247882.6790000014}}, {"type": "Feature", "geometry": {"type": "Point", "coordinates": [8.520023651125248, 47.37272284363858]}, "properties": {"kind": "event", "id": "BP-ZH01-0000060205", "type": "other", "date": "2026-05-08", "distance_m": 202.8, "east": 2681673.4059999995, "north": 1247438.4609999992}}, {"type": "Feature", "geometry": {"type": "Point", "coordinates": [8.52502989277469, 47.371817147216944]}, "properties": {"kind": "event", "id": "BP-ZH01-0000060170", "type": "signage", "date": "2026-05-08", "distance_m": 445.1, "east": 2682052.8759999983, "north": 1247342.9959999993}}, {"type": "Feature", "geometry": {"type": "Point", "coordinates": [8.516763887750907, 47.372702879828864]}, "properties": {"kind": "event", "id": "BP-ZH01-0000059748", "type": "conversion", "date": "2026-04-17", "distance_m": 354.8, "east": 2681427.256000001, "north": 1247432.8539999984}}, {"type": "Feature", "geometry": {"type": "Point", "coordinates": [8.521139333936473, 47.378360529992555]}, "properties": {"kind": "event", "id": "BP-ZH01-0000059747", "type": "extension", "date": "2026-04-17", "distance_m": 431.2, "east": 2681749.017000001, "north": 1248066.3729999997}}, {"type": "Feature", "geometry": {"type": "Point", "coordinates": [8.517244948289283, 47.37442795012803]}, "properties": {"kind": "event", "id": "BP-ZH01-0000059738", "type": "conversion", "date": "2026-04-17", "distance_m": 257.3, "east": 2681460.9499999993, "north": 1247625.1319999993}}, {"type": "Feature", "geometry": {"type": "Point", "coordinates": [8.519198033062178, 47.37029394588681]}, "properties": {"kind": "event", "id": "BP-ZH01-0000059577", "type": "conversion", "date": "2026-04-10", "distance_m": 479.9, "east": 2681614.772999998, "north": 1247167.5780000016}}, {"type": "Feature", "geometry": {"type": "Point", "coordinates": [8.521029553791724, 47.3771099351048]}, "properties": {"kind": "event", "id": "BP-ZH01-0000059361", "type": "extension", "date": "2026-03-27", "distance_m": 292.0, "east": 2681742.6449999996, "north": 1247927.2280000001}}, {"type": "Feature", "geometry": {"type": "Point", "coordinates": [8.52133774554833, 47.37409422518421]}, "properties": {"kind": "event", "id": "BP-ZH01-0000058965", "type": "extension", "date": "2026-03-06", "distance_m": 68.5, "east": 2681770.5439999998, "north": 1247592.2879999988}}, {"type": "Feature", "geometry": {"type": "Point", "coordinates": [8.525178531936282, 47.37396313667444]}, "properties": {"kind": "event", "id": "BP-ZH01-0000058839", "type": "other", "date": "2026-02-27", "distance_m": 347.1, "east": 2682060.7980000004, "north": 1247581.7239999995}}, {"type": "Feature", "geometry": {"type": "Point", "coordinates": [8.521725012721781, 47.3741170492627]}, "properties": {"kind": "event", "id": "BP-ZH01-0000058718", "type": "new_building", "date": "2026-02-20", "distance_m": 91.5, "east": 2681799.754999999, "north": 1247595.2289999984}}, {"type": "Feature", "geometry": {"type": "Point", "coordinates": [8.526332373147586, 47.376659403004005]}, "properties": {"kind": "event", "id": "BP-ZH01-0000058263", "type": "conversion", "date": "2026-01-30", "distance_m": 492.0, "east": 2682143.780000001, "north": 1247882.6790000014}}, {"type": "Feature", "geometry": {"type": "Point", "coordinates": [8.522736895602117, 47.37689470119627]}, "properties": {"kind": "event", "id": "BP-ZH01-0000058131", "type": "energy", "date": "2026-01-23", "distance_m": 309.8, "east": 2681871.905000001, "north": 1247905.0799999982}}, {"type": "Feature", "geometry": {"type": "Point", "coordinates": [8.520267200208389, 47.37437253374968]}, "properties": {"kind": "event", "id": "BP-ZH01-0000058123", "type": "conversion", "date": "2026-01-23", "distance_m": 32.0, "east": 2681689.2710000016, "north": 1247622.1130000018}}, {"type": "Feature", "geometry": {"type": "Point", "coordinates": [8.523430813422411, 47.376963799751756]}, "properties": {"kind": "event", "id": "BP-ZH01-0000058114", "type": "conversion", "date": "2026-01-23", "distance_m": 345.5, "east": 2681924.1999999993, "north": 1247913.4860000014}}, {"type": "Feature", "geometry": {"type": "Point", "coordinates": [8.517642496735826, 47.37296940445611]}, "properties": {"kind": "event", "id": "BP-ZH01-0000057931", "type": "other", "date": "2026-01-16", "distance_m": 283.6, "east": 2681493.2019999996, "north": 1247463.3960000016}}, {"type": "Feature", "geometry": {"type": "Point", "coordinates": [8.516242980322417, 47.375998491643855]}, "properties": {"kind": "event", "id": "BP-ZH01-0000057921", "type": "other", "date": "2026-01-16", "distance_m": 372.4, "east": 2681382.8850000016, "north": 1247798.6920000017}}, {"type": "Feature", "geometry": {"type": "Point", "coordinates": [8.52569959684747, 47.372456372531644]}, "properties": {"kind": "event", "id": "BP-ZH01-0000057366", "type": "extension", "date": "2025-12-05", "distance_m": 443.7, "east": 2682102.4690000005, "north": 1247414.7600000016}}, {"type": "Feature", "geometry": {"type": "Point", "coordinates": [8.51936345982918, 47.374278997102316]}, "properties": {"kind": "event", "id": "BP-ZH01-0000057354", "type": "conversion", "date": "2025-12-05", "distance_m": 100.1, "east": 2681621.164999999, "north": 1247610.7740000002}}, {"type": "Feature", "geometry": {"type": "Point", "coordinates": [8.516798386404526, 47.37768176105627]}, "properties": {"kind": "event", "id": "BP-ZH01-0000057078", "type": "energy", "date": "2025-11-21", "distance_m": 458.3, "east": 2681422.256000001, "north": 1247986.3999999985}}, {"type": "Feature", "geometry": {"type": "Point", "coordinates": [8.521982985788126, 47.375777673339286]}, "properties": {"kind": "event", "id": "BP-ZH01-0000057071", "type": "conversion", "date": "2025-11-21", "distance_m": 174.5, "east": 2681816.688000001, "north": 1247780.1119999997}}, {"type": "Feature", "geometry": {"type": "Point", "coordinates": [8.525700589713404, 47.37536387395495]}, "properties": {"kind": "event", "id": "BP-ZH01-0000056839", "type": "conversion", "date": "2025-11-07", "distance_m": 393.4, "east": 2682098.0659999996, "north": 1247737.9919999987}}, {"type": "Feature", "geometry": {"type": "Point", "coordinates": [8.52104978654335, 47.37220686130193]}, "properties": {"kind": "event", "id": "BP-ZH01-0000056453", "type": "energy", "date": "2025-10-17", "distance_m": 256.3, "east": 2681751.6920000017, "north": 1247382.1669999994}}, {"type": "Feature", "geometry": {"type": "Point", "coordinates": [8.526622501661453, 47.37335482352314]}, "properties": {"kind": "event", "id": "BP-ZH01-0000056440", "type": "energy", "date": "2025-10-17", "distance_m": 468.6, "east": 2682170.783, "north": 1247515.607999999}}, {"type": "Feature", "geometry": {"type": "Point", "coordinates": [8.520388426707676, 47.37130643904312]}, "properties": {"kind": "event", "id": "BP-ZH01-0000056285", "type": "extension", "date": "2025-10-10", "distance_m": 355.2, "east": 2681703.125, "north": 1247281.3770000003}}, {"type": "Feature", "geometry": {"type": "Point", "coordinates": [8.52511734060858, 47.37483682339462]}, "properties": {"kind": "event", "id": "BP-ZH01-0000056023", "type": "conversion", "date": "2025-09-26", "distance_m": 339.5, "east": 2682054.8319999985, "north": 1247678.7890000008}}]}