{"type": "FeatureCollection", "features": [{"type": "Feature", "geometry": {"type": "Polygon", "coordinates": [[[6.1449716, 46.2036703], [6.145093, 46.2038525], [6.1449847, 46.2038836], [6.1452299, 46.2043084], [6.1454281, 46.2042531], [6.1455581, 46.2042924], [6.1455544, 46.2042851], [6.1456813, 46.2042335], [6.1457088, 46.2042221], [6.1458252, 46.2041731], [6.1457001, 46.204043], [6.1455273, 46.2041157], [6.1453925, 46.2039549], [6.1452854, 46.2039906], [6.1452231, 46.2038828], [6.1452753, 46.2038672], [6.1452204, 46.2037802], [6.1452334, 46.2037767], [6.1451785, 46.2036897], [6.1451968, 46.2036837], [6.1451593, 46.2036247], [6.1451528, 46.2036265], [6.1449716, 46.2036703]]]}, "properties": {"kind": "parcel", "local_id": "7013", "egrid": "CH296589536314", "area_m2": 1924.3, "geometry_lv95": {"type": "Polygon", "coordinates": [[[2500151.4, 1117737.7], [2500161.1, 1117757.8], [2500152.8, 1117761.4], [2500172.5, 1117808.3], [2500187.7, 1117801.9], [2500197.8, 1117806.1], [2500197.5, 1117805.3], [2500207.2, 1117799.4], [2500209.3, 1117798.1], [2500218.2, 1117792.5], [2500208.3, 1117778.2], [2500195.1, 1117786.5], [2500184.4, 1117768.8], [2500176.2, 1117772.9], [2500171.2, 1117761.0], [2500175.2, 1117759.2], [2500170.8, 1117749.6], [2500171.8, 1117749.2], [2500167.4, 1117739.6], [2500168.8, 1117738.9], [2500165.8, 1117732.4], [2500165.3, 1117732.6], [2500151.4, 1117737.7]]]}}}, {"type": "Feature", "geometry": {"type": "Point", "coordinates": [6.1453911, 46.2042305]}, "properties": {"kind": "building", "egid": "2037304", "floors": 8, "footprint_m2": 2542.0, "geometry_lv95": {"type": "Point", "coordinates": [2500184.8, 1117799.44]}}}]}